{
  "type": "FeatureCollection",
  "features": [
    {
      "type": "Feature",
      "properties": {
        "norad_id": 34468,
        "name": "COSMOS 2251 DEB",
        "group": "cosmos-2251-debris",
        "lat": 69.5817959274658,
        "lon": -141.2357429834245,
        "alt_km": 759.4171352664243,
        "timestamp": "2025-12-27T17:24:57.802133+00:00",
        "meta_object_name": "COSMOS 2251 DEB",
        "meta_object_id": "1993-036TM",
        "meta_epoch": "2025-12-27T06:59:07.416384",
        "meta_mean_motion": 14.47664759,
        "meta_eccentricity": 0.0076195,
        "meta_inclination": 74.0132,
        "meta_ra_of_asc_node": 89.9428,
        "meta_arg_of_pericenter": 231.9281,
        "meta_mean_anomaly": 127.4989,
        "meta_ephemeris_type": 0,
        "meta_classification_type": "U",
        "meta_norad_cat_id": 34468,
        "meta_element_set_no": 999,
        "meta_rev_at_epoch": 88672,
        "meta_bstar": 0.00041105,
        "meta_mean_motion_dot": 1.543e-05,
        "meta_mean_motion_ddot": 0,
        "tle_line1": "1 34468U 93036TM  25361.29105806  .00001543  00000+0  41105-3 0  9990",
        "tle_line2": "2 34468  74.0132  89.9428 0076195 231.9281 127.4989 14.47664759886722"
      },
      "geometry": {
        "type": "Point",
        "coordinates": [
          -141.2357429834245,
          69.5817959274658
        ]
      }
    },
    {
      "type": "Feature",
      "properties": {
        "norad_id": 34472,
        "name": "COSMOS 2251 DEB",
        "group": "cosmos-2251-debris",
        "lat": -68.67382178401523,
        "lon": 26.543955042155684,
        "alt_km": 968.7662091292359,
        "timestamp": "2025-12-27T17:24:57.802144+00:00",
        "meta_object_name": "COSMOS 2251 DEB",
        "meta_object_id": "1993-036TR",
        "meta_epoch": "2025-12-25T14:59:08.401056",
        "meta_mean_motion": 13.7035431,
        "meta_eccentricity": 0.032767,
        "meta_inclination": 74.0846,
        "meta_ra_of_asc_node": 76.9541,
        "meta_arg_of_pericenter": 205.149,
        "meta_mean_anomaly": 153.3364,
        "meta_ephemeris_type": 0,
        "meta_classification_type": "U",
        "meta_norad_cat_id": 34472,
        "meta_element_set_no": 999,
        "meta_rev_at_epoch": 83903,
        "meta_bstar": 0.00075081,
        "meta_mean_motion_dot": 9.47e-06,
        "meta_mean_motion_ddot": 0,
        "tle_line1": "1 34472U 93036TR  25359.62440279  .00000947  00000+0  75081-3 0  9992",
        "tle_line2": "2 34472  74.0846  76.9541 0327670 205.1490 153.3364 13.70354310839034"
      },
      "geometry": {
        "type": "Point",
        "coordinates": [
          26.543955042155684,
          -68.67382178401523
        ]
      }
    },
    {
      "type": "Feature",
      "properties": {
        "norad_id": 34474,
        "name": "COSMOS 2251 DEB",
        "group": "cosmos-2251-debris",
        "lat": -20.9156677932005,
        "lon": 126.27809133702775,
        "alt_km": 1017.7840015380798,
        "timestamp": "2025-12-27T17:24:57.802154+00:00",
        "meta_object_name": "COSMOS 2251 DEB",
        "meta_object_id": "1993-036TT",
        "meta_epoch": "2025-12-27T05:05:00.314880",
        "meta_mean_motion": 14.06538625,
        "meta_eccentricity": 0.0199493,
        "meta_inclination": 74.0782,
        "meta_ra_of_asc_node": 300.912,
        "meta_arg_of_pericenter": 11.3614,
        "meta_mean_anomaly": 109.8468,
        "meta_ephemeris_type": 0,
        "meta_classification_type": "U",
        "meta_norad_cat_id": 34474,
        "meta_element_set_no": 999,
        "meta_rev_at_epoch": 85712,
        "meta_bstar": 0.0026288,
        "meta_mean_motion_dot": 5.191e-05,
        "meta_mean_motion_ddot": 0,
        "tle_line1": "1 34474U 93036TT  25361.21180920  .00005191  00000+0  26288-2 0  9996",
        "tle_line2": "2 34474  74.0782 300.9120 0199493  11.3614 109.8468 14.06538625857127"
      },
      "geometry": {
        "type": "Point",
        "coordinates": [
          126.27809133702775,
          -20.9156677932005
        ]
      }
    },
    {
      "type": "Feature",
      "properties": {
        "norad_id": 34476,
        "name": "COSMOS 2251 DEB",
        "group": "cosmos-2251-debris",
        "lat": -54.38783570125181,
        "lon": 33.637640821413804,
        "alt_km": 753.0413278067326,
        "timestamp": "2025-12-27T17:24:57.802164+00:00",
        "meta_object_name": "COSMOS 2251 DEB",
        "meta_object_id": "1993-036TV",
        "meta_epoch": "2025-12-27T03:47:21.465312",
        "meta_mean_motion": 13.82191935,
        "meta_eccentricity": 0.03228279,
        "meta_inclination": 74.0067,
        "meta_ra_of_asc_node": 58.1984,
        "meta_arg_of_pericenter": 274.8474,
        "meta_mean_anomaly": 81.5866,
        "meta_ephemeris_type": 0,
        "meta_classification_type": "U",
        "meta_norad_cat_id": 34476,
        "meta_element_set_no": 999,
        "meta_rev_at_epoch": 83837,
        "meta_bstar": 0.0046332643,
        "meta_mean_motion_dot": 7.418e-05,
        "meta_mean_motion_ddot": 0,
        "tle_line1": "1 34476U 93036TV  25361.15788733  .00007418  00000+0  46333-2 0  9994",
        "tle_line2": "2 34476  74.0067  58.1984 0322827 274.8474  81.5866 13.82191935838370"
      },
      "geometry": {
        "type": "Point",
        "coordinates": [
          33.637640821413804,
          -54.38783570125181
        ]
      }
    },
    {
      "type": "Feature",
      "properties": {
        "norad_id": 34477,
        "name": "COSMOS 2251 DEB",
        "group": "cosmos-2251-debris",
        "lat": -73.82439450292796,
        "lon": -56.922388676999276,
        "alt_km": 669.793248201343,
        "timestamp": "2025-12-27T17:24:57.802174+00:00",
        "meta_object_name": "COSMOS 2251 DEB",
        "meta_object_id": "1993-036TW",
        "meta_epoch": "2025-12-27T06:51:30.312864",
        "meta_mean_motion": 14.56964871,
        "meta_eccentricity": 0.0076564,
        "meta_inclination": 73.9787,
        "meta_ra_of_asc_node": 41.78,
        "meta_arg_of_pericenter": 226.2181,
        "meta_mean_anomaly": 254.6257,
        "meta_ephemeris_type": 0,
        "meta_classification_type": "U",
        "meta_norad_cat_id": 34477,
        "meta_element_set_no": 999,
        "meta_rev_at_epoch": 88837,
        "meta_bstar": 0.00081883,
        "meta_mean_motion_dot": 3.799e-05,
        "meta_mean_motion_ddot": 0,
        "tle_line1": "1 34477U 93036TW  25361.28576751  .00003799  00000+0  81883-3 0  9992",
        "tle_line2": "2 34477  73.9787  41.7800 0076564 226.2181 254.6257 14.56964871888374"
      },
      "geometry": {
        "type": "Point",
        "coordinates": [
          -56.922388676999276,
          -73.82439450292796
        ]
      }
    },
    {
      "type": "Feature",
      "properties": {
        "norad_id": 34478,
        "name": "COSMOS 2251 DEB",
        "group": "cosmos-2251-debris",
        "lat": 49.53398040367375,
        "lon": -4.374071816786999,
        "alt_km": 550.5369151928871,
        "timestamp": "2025-12-27T17:24:57.802185+00:00",
        "meta_object_name": "COSMOS 2251 DEB",
        "meta_object_id": "1993-036TX",
        "meta_epoch": "2025-12-27T01:48:26.294112",
        "meta_mean_motion": 15.09313418,
        "meta_eccentricity": 0.00334377,
        "meta_inclination": 74.0399,
        "meta_ra_of_asc_node": 337.3639,
        "meta_arg_of_pericenter": 192.5688,
        "meta_mean_anomaly": 287.7096,
        "meta_ephemeris_type": 0,
        "meta_classification_type": "U",
        "meta_norad_cat_id": 34478,
        "meta_element_set_no": 999,
        "meta_rev_at_epoch": 89189,
        "meta_bstar": 0.0039112702,
        "meta_mean_motion_dot": 0.00063716,
        "meta_mean_motion_ddot": 0,
        "tle_line1": "1 34478U 93036TX  25361.07530433  .00063716  00000+0  39113-2 0  9990",
        "tle_line2": "2 34478  74.0399 337.3639 0033437 192.5688 287.7096 15.09313418891892"
      },
      "geometry": {
        "type": "Point",
        "coordinates": [
          -4.374071816786999,
          49.53398040367375
        ]
      }
    },
    {
      "type": "Feature",
      "properties": {
        "norad_id": 34481,
        "name": "COSMOS 2251 DEB",
        "group": "cosmos-2251-debris",
        "lat": -46.60448889068823,
        "lon": -136.3087470834051,
        "alt_km": 746.5805246366726,
        "timestamp": "2025-12-27T17:24:57.802195+00:00",
        "meta_object_name": "COSMOS 2251 DEB",
        "meta_object_id": "1993-036UA",
        "meta_epoch": "2025-12-27T09:56:47.055264",
        "meta_mean_motion": 14.32603287,
        "meta_eccentricity": 0.0070087,
        "meta_inclination": 73.9789,
        "meta_ra_of_asc_node": 26.5699,
        "meta_arg_of_pericenter": 198.1344,
        "meta_mean_anomaly": 225.9645,
        "meta_ephemeris_type": 0,
        "meta_classification_type": "U",
        "meta_norad_cat_id": 34481,
        "meta_element_set_no": 999,
        "meta_rev_at_epoch": 87659,
        "meta_bstar": 0.00068172,
        "meta_mean_motion_dot": 1.876e-05,
        "meta_mean_motion_ddot": 0,
        "tle_line1": "1 34481U 93036UA  25361.41443351  .00001876  00000+0  68172-3 0  9991",
        "tle_line2": "2 34481  73.9789  26.5699 0070087 198.1344 225.9645 14.32603287876598"
      },
      "geometry": {
        "type": "Point",
        "coordinates": [
          -136.3087470834051,
          -46.60448889068823
        ]
      }
    }
  ]
}